OBJECT_NAME,OBJECT_ID,EPOCH,MEAN_MOTION,ECCENTRICITY,INCLINATION,RA_OF_ASC_NODE,ARG_OF_PERICENTER,MEAN_ANOMALY,EPHEMERIS_TYPE,CLASSIFICATION_TYPE,NORAD_CAT_ID,ELEMENT_SET_NO,REV_AT_EPOCH,BSTAR,MEAN_MOTION_DOT,MEAN_MOTION_DDOT
LEMUR-2-ROUNDTRIPPER,2025-009DG,2026-06-18T11:47:10.769568,15.03810072,.00055022,97.7254,252.1685,126.6110,233.5622,0,U,62711,999,7782,.49937147E-3,.6807E-4,0
LEMUR-2-MYNAMEISJEFF,2025-009DH,2026-06-18T11:44:52.841472,15.03815478,.00037172,97.7300,252.5488,147.6038,212.5416,0,U,62712,999,7782,.47823454E-3,.6516E-4,0
LEMUR-2-LEIA-PHILIP,2025-052AN,2026-06-18T14:33:41.042592,14.97321945,.00026989,97.6836,61.5341,205.2686,154.8404,0,U,63246,999,6888,.54694247E-4,.577E-5,0
LEMUR-2-LIA-MARTIN,2025-052AQ,2026-06-18T14:40:18.331392,14.97811281,.00029669,97.6887,62.0158,155.0061,205.1306,0,U,63248,999,6889,.2431023E-3,.2798E-4,0
LEMUR-2-DELOITTE-1,2025-052BB,2026-06-18T06:05:30.981120,14.97612095,.00034548,97.6922,61.9920,94.8418,265.3198,0,U,63259,999,6885,.32331933E-3,.3722E-4,0
LEMUR-2-EMERSONROSE,2025-052BD,2026-06-18T10:16:36.565536,14.99085932,.00017277,97.6880,62.7250,68.6010,291.5397,0,U,63261,999,6892,.2381311E-3,.2833E-4,0
LEMUR-2-MARACHE-FRAN,2025-052BE,2026-06-18T14:28:01.052544,15.00113345,.00052233,97.6937,63.2169,18.0876,342.0533,0,U,63262,999,6897,.33013401E-3,.4059E-4,0
LEMUR-2-THEFALCONER,2025-052BG,2026-06-18T14:44:51.032256,14.97395436,.00024723,97.6855,61.9666,28.7347,331.4011,0,U,63264,999,6890,.21266163E-3,.2414E-4,0
LEMUR-2-UNTITLED-SC,2025-061A,2026-06-18T08:16:37.716672,15.13483631,.00169318,97.5636,144.6980,259.9891,99.9430,0,U,63351,999,6776,.19240113E-3,.3387E-4,0
LEMUR-2-ESPERANZA,2025-061B,2026-06-18T09:18:47.907936,15.13577207,.00165468,97.5645,144.8348,259.3349,100.6019,0,U,63352,999,6777,.15737477E-3,.2765E-4,0
LEMUR-2-KREMPEL-BRO2,2025-061C,2026-06-18T11:32:19.204512,15.14014059,.00175393,97.5691,145.4616,250.6281,109.3055,0,U,63353,999,6780,.18603463E-3,.3323E-4,0
LEMUR-2-THERMORAPTOR,2025-061D,2026-06-18T09:31:13.926144,15.14094084,.00172109,97.5697,145.4543,249.5830,110.3553,0,U,63354,999,6779,.17388669E-3,.3108E-4,0
LEMUR-2-NEUROSPICY,2025-061E,2026-06-18T08:50:18.620448,15.14208053,.00150435,97.5625,145.0511,253.4986,106.4593,0,U,63355,999,6779,.16325915E-3,.2921E-4,0
LEMUR-2-TILLINFINITY,2025-061F,2026-06-18T09:40:26.009184,15.14794824,.0016429,97.5609,145.3770,240.3326,119.6270,0,U,63356,999,6782,.18417199E-3,.3361E-4,0
LEMUR-2-KREMPEL-BRO1,2025-061G,2026-06-18T09:02:27.315456,15.14599257,.00170489,97.5612,145.2664,242.0323,117.9183,0,U,63357,999,6781,.15391545E-3,.2783E-4,0
LEMUR-2-LANGER2SPACE,2025-061H,2026-06-18T11:16:07.182048,15.14297359,.00149788,97.5615,145.1723,251.3473,108.6133,0,U,63358,999,6781,.1849526E-3,.3327E-4,0
LEMUR-2-BALTO,2025-052BH,2026-06-18T10:53:52.997568,15.00098869,.00069006,97.6897,63.0474,54.5649,305.6218,0,U,63395,999,6895,.39493511E-3,.4868E-4,0
LEMUR-2-KRISH,2025-135AK,2026-06-18T06:40:30.948672,14.96218577,.00017387,97.7756,284.1466,98.1079,262.0340,0,U,64561,999,5408,.37376849E-3,.4158E-4,0
LEMUR-2-HUBBLE-4,2025-135AP,2026-06-18T13:02:49.212960,14.93201627,.00009162,97.7701,283.4330,296.8144,63.2982,0,U,64565,999,5407,.12722547E-3,.1273E-4,0
LEMUR-2-SEJONG-2,2025-135BL,2026-06-18T13:48:15.081120,14.96704181,.00037077,97.7687,284.5863,332.8858,27.2169,0,U,64586,999,5415,.288085E-3,.3232E-4,0
LEMUR-2-HUBBLE-5,2025-135BT,2026-06-18T13:31:53.126112,14.94138732,.0004978,97.7720,284.0892,348.9414,11.1695,0,U,64840,999,5411,.83872912E-4,.84E-5,0
LEMUR-2-KARENDARRELL,2025-135BU,2026-06-18T14:03:19.721952,15.00126485,.00097752,97.7684,285.7910,196.6049,163.4855,0,U,64841,999,5422,.49425675E-3,.6114E-4,0
LEMUR-2-LUCILLE-ROSE,2025-135BV,2026-06-18T07:01:12.717984,15.00164541,.00112551,97.7766,285.5192,278.7265,81.2683,0,U,65403,999,4880,.38909958E-3,.4805E-4,0
LEMUR-2-AFFIE-WAUWIE,2025-248C,2026-06-18T13:26:42.013536,15.27183176,.00073232,45.3926,107.5487,94.5621,265.6105,0,U,66295,999,3480,.50907456E-3,.13549E-3,0
LEMUR-2-DEANANDMAEVE,2025-276N,2026-06-18T13:34:35.502816,15.19746440,.00055645,97.4208,243.0185,9.8308,350.3034,0,U,66678,999,3062,.24501891E-3,.5173E-4,0
LEMUR-2-STAS-GORBUK,2025-276W,2026-06-18T10:46:16.081536,15.19392017,.00049667,97.4243,242.9585,11.3869,348.7477,0,U,66686,999,3060,.20114682E-3,.419E-4,0
LEMUR-2-TEODOR,2025-276DG,2026-06-18T15:05:07.192608,15.21063178,.00021958,97.4149,243.3733,115.5069,244.6394,0,U,66768,999,3066,.2160374E-3,.4731E-4,0
LEMUR-2-LAILA,2025-276DQ,2026-06-18T11:17:49.286112,15.21283595,.00022915,97.4172,243.3394,134.2609,225.8816,0,U,66776,999,3064,.2153941E-3,.4747E-4,0
LEMUR-2-CELIJO-SB-PK,2025-276DW,2026-06-18T10:29:56.732352,14.99988918,.00087049,97.5247,240.1741,129.8858,230.3133,0,U,66781,999,2281,.39573458E-3,.4867E-4,0
